{"type": "FeatureCollection", "features": [ {"type": "Feature", "properties": {"norad_id": 44476, "name": "INTELSAT 39 (IS-39)", "group": "intelsat", "lat": 0.02488029390748085, "lon": 57.075968565255785, "alt_km": 35784.90980975315, "timestamp": "2025-12-18T17:50:14.624128+00:00", "meta": {"OBJECT_NAME": "INTELSAT 39 (IS-39)", "OBJECT_ID": "2019-049B", "EPOCH": "2025-12-18T01:36:17.498880", "MEAN_MOTION": 1.00271075, "ECCENTRICITY": 0.00012823, "INCLINATION": 0.0013, "RA_OF_ASC_NODE": 1.1489, "ARG_OF_PERICENTER": 132.0175, "MEAN_ANOMALY": 39.782, "EPHEMERIS_TYPE": 0, "CLASSIFICATION_TYPE": "U", "NORAD_CAT_ID": 44476, "ELEMENT_SET_NO": 999, "REV_AT_EPOCH": 2331, "BSTAR": 0, "MEAN_MOTION_DOT": 5.9e-07, "MEAN_MOTION_DDOT": 0}, "tle": {"line1": "1 44476U 19049B   25352.06686920  .00000059  00000+0  00000+0 0  9994", "line2": "2 44476   0.0013   1.1489 0001282 132.0175  39.7820  1.00271075 23317"}}, "geometry": {"type": "Point", "coordinates": [57.075968565255785, 0.02488029390748085]}}, {"type": "Feature", "properties": {"norad_id": 46114, "name": "GALAXY 30 (G-30)", "group": "intelsat", "lat": -0.025971429599932278, "lon": -129.85460453160653, "alt_km": 35779.106383758735, "timestamp": "2025-12-18T17:50:14.624140+00:00", "meta": {"OBJECT_NAME": "GALAXY 30 (G-30)", "OBJECT_ID": "2020-056C", "EPOCH": "2025-12-18T05:46:06.470688", "MEAN_MOTION": 1.00272773, "ECCENTRICITY": 0.00020182, "INCLINATION": 0.0022, "RA_OF_ASC_NODE": 348.5293, "ARG_OF_PERICENTER": 280.4289, "MEAN_ANOMALY": 139.6817, "EPHEMERIS_TYPE": 0, "CLASSIFICATION_TYPE": "U", "NORAD_CAT_ID": 46114, "ELEMENT_SET_NO": 999, "REV_AT_EPOCH": 1947, "BSTAR": 0, "MEAN_MOTION_DOT": 6.2e-07, "MEAN_MOTION_DDOT": 0}, "tle": {"line1": "1 46114U 20056C   25352.24035267  .00000062  00000+0  00000+0 0  9991", "line2": "2 46114   0.0022 348.5293 0002018 280.4289 139.6817  1.00272773 19475"}}, "geometry": {"type": "Point", "coordinates": [-129.85460453160653, -0.025971429599932278]}}, {"type": "Feature", "properties": {"norad_id": 54026, "name": "GALAXY 33 (G-33)", "group": "intelsat", "lat": -0.022846924436095623, "lon": -137.8556316408977, "alt_km": 35781.62241012896, "timestamp": "2025-12-18T17:50:14.624151+00:00", "meta": {"OBJECT_NAME": "GALAXY 33 (G-33)", "OBJECT_ID": "2022-128A", "EPOCH": "2025-12-18T07:43:42.079584", "MEAN_MOTION": 1.00270561, "ECCENTRICITY": 0.00015655, "INCLINATION": 0.0131, "RA_OF_ASC_NODE": 16.7549, "ARG_OF_PERICENTER": 249.4487, "MEAN_ANOMALY": 163.9157, "EPHEMERIS_TYPE": 0, "CLASSIFICATION_TYPE": "U", "NORAD_CAT_ID": 54026, "ELEMENT_SET_NO": 999, "REV_AT_EPOCH": 1192, "BSTAR": 0, "MEAN_MOTION_DOT": 1.04e-06, "MEAN_MOTION_DDOT": 0}, "tle": {"line1": "1 54026U 22128A   25352.32201481  .00000104  00000+0  00000+0 0  9993", "line2": "2 54026   0.0131  16.7549 0001565 249.4487 163.9157  1.00270561 11928"}}, "geometry": {"type": "Point", "coordinates": [-137.8556316408977, -0.022846924436095623]}}, {"type": "Feature", "properties": {"norad_id": 54027, "name": "GALAXY 34 (G-34)", "group": "intelsat", "lat": -0.04185114190585101, "lon": -133.77527559954416, "alt_km": 35780.692739974824, "timestamp": "2025-12-18T17:50:14.624162+00:00", "meta": {"OBJECT_NAME": "GALAXY 34 (G-34)", "OBJECT_ID": "2022-128B", "EPOCH": "2025-12-18T02:27:22.645152", "MEAN_MOTION": 1.00271871, "ECCENTRICITY": 0.00015543, "INCLINATION": 0.0227, "RA_OF_ASC_NODE": 349.9987, "ARG_OF_PERICENTER": 272.3331, "MEAN_ANOMALY": 92.5663, "EPHEMERIS_TYPE": 0, "CLASSIFICATION_TYPE": "U", "NORAD_CAT_ID": 54027, "ELEMENT_SET_NO": 999, "REV_AT_EPOCH": 1209, "BSTAR": 0, "MEAN_MOTION_DOT": 0, "MEAN_MOTION_DDOT": 0}, "tle": {"line1": "1 54027U 22128B   25352.10234543  .00000000  00000+0  00000+0 0  9990", "line2": "2 54027   0.0227 349.9987 0001554 272.3331  92.5663  1.00271871 12096"}}, "geometry": {"type": "Point", "coordinates": [-133.77527559954416, -0.04185114190585101]}}, {"type": "Feature", "properties": {"norad_id": 54243, "name": "GALAXY 31 (G-31)", "group": "intelsat", "lat": -0.01396863854995637, "lon": -125.84526839408933, "alt_km": 35781.58083849962, "timestamp": "2025-12-18T17:50:14.624174+00:00", "meta": {"OBJECT_NAME": "GALAXY 31 (G-31)", "OBJECT_ID": "2022-153A", "EPOCH": "2025-12-17T23:01:24.835872", "MEAN_MOTION": 1.00272955, "ECCENTRICITY": 0.00014763, "INCLINATION": 0.0201, "RA_OF_ASC_NODE": 61.1957, "ARG_OF_PERICENTER": 221.7333, "MEAN_ANOMALY": 28.2661, "EPHEMERIS_TYPE": 0, "CLASSIFICATION_TYPE": "U", "NORAD_CAT_ID": 54243, "ELEMENT_SET_NO": 999, "REV_AT_EPOCH": 531, "BSTAR": 0, "MEAN_MOTION_DOT": 3.8e-07, "MEAN_MOTION_DDOT": 0}, "tle": {"line1": "1 54243U 22153A   25351.95931523  .00000038  00000+0  00000+0 0  9993", "line2": "2 54243   0.0201  61.1957 0001476 221.7333  28.2661  1.00272955  5316"}}, "geometry": {"type": "Point", "coordinates": [-125.84526839408933, -0.01396863854995637]}}, {"type": "Feature", "properties": {"norad_id": 54244, "name": "GALAXY 32 (G-32)", "group": "intelsat", "lat": -0.03560785345546928, "lon": -95.87517314648005, "alt_km": 35779.85582402743, "timestamp": "2025-12-18T17:50:14.624186+00:00", "meta": {"OBJECT_NAME": "GALAXY 32 (G-32)", "OBJECT_ID": "2022-153B", "EPOCH": "2025-12-17T04:19:59.261664", "MEAN_MOTION": 1.00271531, "ECCENTRICITY": 0.000259, "INCLINATION": 0.0104, "RA_OF_ASC_NODE": 339.7375, "ARG_OF_PERICENTER": 338.8221, "MEAN_ANOMALY": 101.4983, "EPHEMERIS_TYPE": 0, "CLASSIFICATION_TYPE": "U", "NORAD_CAT_ID": 54244, "ELEMENT_SET_NO": 999, "REV_AT_EPOCH": 1131, "BSTAR": 0, "MEAN_MOTION_DOT": -1.5e-06, "MEAN_MOTION_DDOT": 0}, "tle": {"line1": "1 54244U 22153B   25351.18054701 -.00000150  00000+0  00000+0 0  9999", "line2": "2 54244   0.0104 339.7375 0002590 338.8221 101.4983  1.00271531 11318"}}, "geometry": {"type": "Point", "coordinates": [-95.87517314648005, -0.03560785345546928]}}, {"type": "Feature", "properties": {"norad_id": 54741, "name": "GALAXY 35 (G-35)", "group": "intelsat", "lat": -0.03933912775775826, "lon": -97.96484923267508, "alt_km": 35777.3556372945, "timestamp": "2025-12-18T17:50:14.624197+00:00", "meta": {"OBJECT_NAME": "GALAXY 35 (G-35)", "OBJECT_ID": "2022-170A", "EPOCH": "2025-12-18T06:00:15.173568", "MEAN_MOTION": 1.00270994, "ECCENTRICITY": 0.00021463, "INCLINATION": 0.0191, "RA_OF_ASC_NODE": 24.87, "ARG_OF_PERICENTER": 246.4879, "MEAN_ANOMALY": 172.7104, "EPHEMERIS_TYPE": 0, "CLASSIFICATION_TYPE": "U", "NORAD_CAT_ID": 54741, "ELEMENT_SET_NO": 999, "REV_AT_EPOCH": 1107, "BSTAR": 0, "MEAN_MOTION_DOT": 0, "MEAN_MOTION_DDOT": 0}, "tle": {"line1": "1 54741U 22170A   25352.25017562  .00000000  00000+0  00000+0 0  9996", "line2": "2 54741   0.0191  24.8700 0002146 246.4879 172.7104  1.00270994 11071"}}, "geometry": {"type": "Point", "coordinates": [-97.96484923267508, -0.03933912775775826]}}, {"type": "Feature", "properties": {"norad_id": 54742, "name": "GALAXY 36 (G-36)", "group": "intelsat", "lat": -0.019402623791279883, "lon": -93.84851106342107, "alt_km": 35785.92150450764, "timestamp": "2025-12-18T17:50:14.624209+00:00", "meta": {"OBJECT_NAME": "GALAXY 36 (G-36)", "OBJECT_ID": "2022-170B", "EPOCH": "2025-12-17T14:36:52.642368", "MEAN_MOTION": 1.0027201, "ECCENTRICITY": 2.709e-05, "INCLINATION": 0.0136, "RA_OF_ASC_NODE": 286.7849, "ARG_OF_PERICENTER": 61.0617, "MEAN_ANOMALY": 228.8591, "EPHEMERIS_TYPE": 0, "CLASSIFICATION_TYPE": "U", "NORAD_CAT_ID": 54742, "ELEMENT_SET_NO": 999, "REV_AT_EPOCH": 1095, "BSTAR": 0, "MEAN_MOTION_DOT": -1.6e-06, "MEAN_MOTION_DDOT": 0}, "tle": {"line1": "1 54742U 22170B   25351.60894262 -.00000160  00000+0  00000+0 0  9993", "line2": "2 54742   0.0136 286.7849 0000270  61.0617 228.8591  1.00272010 10951"}}, "geometry": {"type": "Point", "coordinates": [-93.84851106342107, -0.019402623791279883]}}, {"type": "Feature", "properties": {"norad_id": 57493, "name": "GALAXY 37 (G-37)", "group": "intelsat", "lat": -0.03381622447326817, "lon": -131.85549144215642, "alt_km": 35780.05608704207, "timestamp": "2025-12-18T17:50:14.624220+00:00", "meta": {"OBJECT_NAME": "GALAXY 37 (G-37)", "OBJECT_ID": "2023-112A", "EPOCH": "2025-12-17T22:59:40.004160", "MEAN_MOTION": 1.00272187, "ECCENTRICITY": 0.00020138, "INCLINATION": 0.0114, "RA_OF_ASC_NODE": 322.1916, "ARG_OF_PERICENTER": 312.6639, "MEAN_ANOMALY": 29.8977, "EPHEMERIS_TYPE": 0, "CLASSIFICATION_TYPE": "U", "NORAD_CAT_ID": 57493, "ELEMENT_SET_NO": 999, "REV_AT_EPOCH": 872, "BSTAR": 0, "MEAN_MOTION_DOT": 7.3e-07, "MEAN_MOTION_DDOT": 0}, "tle": {"line1": "1 57493U 23112A   25351.95810190  .00000073  00000+0  00000+0 0  9994", "line2": "2 57493   0.0114 322.1916 0002013 312.6639  29.8977  1.00272187  8723"}}, "geometry": {"type": "Point", "coordinates": [-131.85549144215642, -0.03381622447326817]}}]}